SXM-10                  
1 64290U 25122A   26062.70606804 -.00000031  00000+0  00000+0 0  9993
2 64290   0.0215  65.8158 0002810 298.5877 295.0585  1.00270518  2629
INTELSAT 33E DEB        
1 64394U 16053Y   26062.09821585 -.00000138  00000+0  00000+0 0  9996
2 64394   1.1460  38.1194 0627082 339.8301  18.7694  1.08355555  5296
INTELSAT 33E DEB        
1 64395U 16053Z   26061.92791405 -.00000215  00000+0  00000+0 0  9991
2 64395   2.1310 116.3875 0087455 203.7517 156.1941  0.99833999  4865
INTELSAT 33E DEB        
1 64396U 16053AA  26061.91048232 -.00000312  00000+0  00000+0 0  9992
2 64396   1.2982  83.6361 0110261  58.2603 303.8183  0.98615107  4933
INTELSAT 33E DEB        
1 64397U 16053AB  26062.61640213  .00000098  00000+0  00000+0 0  9998
2 64397   1.2670  81.2950 0047152  91.5570 270.0783  0.99467443  4858
INTELSAT 33E DEB        
1 64398U 16053AC  26055.09246179  .00000021  00000+0  00000+0 0  9992
2 64398   1.1692  47.8448 0198390 317.0627  42.1986  1.00972481  4873
INTELSAT 33E DEB        
1 64399U 16053AD  26056.84607028 -.00000303  00000+0  00000+0 0  9995
2 64399   1.3084  58.8286 0520584 324.9740  32.3647  0.98863655  4727
INTELSAT 33E DEB        
1 64400U 16053AE  26059.33555588 -.00000036  00000+0  00000+0 0  9991
2 64400   1.2056  82.0200 0480725 305.7756  50.5784  1.03345253  5034
INTELSAT 33E DEB        
1 64401U 16053AF  26050.73892810 -.00000058  00000+0  00000+0 0  9993
2 64401   1.1047  72.8646 0700758 295.6650  58.1706  1.05810450  5065
INTELSAT 33E DEB        
1 64402U 16053AG  26062.18518661 -.00000070  00000+0  00000+0 0  9999
2 64402   1.2366  75.1099 0120900 102.4572 260.0667  0.98355069  4826
INTELSAT 33E DEB        
1 64403U 16053AH  26062.32504366 -.00000157  00000+0  00000+0 0  9999
2 64403   1.1657  63.5234 0062621 335.5925  25.3515  1.00711906  4898
INTELSAT 33E DEB        
1 64404U 16053AJ  26062.54900529  .00000010  00000+0  00000+0 0  9992
2 64404   1.1769  57.2780 0106794  26.0425 335.7292  0.99863722  4853
INTELSAT 33E DEB        
1 64405U 16053AK  26062.49755338 -.00000283  00000+0  00000+0 0  9996
2 64405   1.4544  95.8285 0063775   9.9374 351.0027  0.99503767  4857
INTELSAT 33E DEB        
1 64406U 16053AL  26061.49929815 -.00000130  00000+0  00000+0 0  9990
2 64406   1.1994  68.6079 0127586  43.8501 318.3222  0.98885276  4785
INTELSAT 33E DEB        
1 64408U 16053AN  26060.04313262 -.00000274  00000+0  00000+0 0  9994
2 64408   2.1225  99.3652 1629623 272.6718  69.2080  1.03199200  4961
INTELSAT 33E DEB        
1 64409U 16053AP  26062.62831881  .00000106  00000+0  00000+0 0  9996
2 64409   1.2517  79.3755 0052451  77.2745 284.4318  0.99465133  4819
INTELSAT 33E DEB        
1 64410U 16053AQ  26061.94776938 -.00000251  00000+0  00000+0 0  9995
2 64410   1.1880  69.2809 0064405 349.9368  11.1232  0.99992787  4824
