[{"OBJECT_NAME":"SXM-10","OBJECT_ID":"2025-122A","EPOCH":"2026-03-03T16:56:44.278656","MEAN_MOTION":1.00270518,"ECCENTRICITY":0.000281,"INCLINATION":0.0215,"RA_OF_ASC_NODE":65.8158,"ARG_OF_PERICENTER":298.5877,"MEAN_ANOMALY":295.0585,"EPHEMERIS_TYPE":0,"CLASSIFICATION_TYPE":"U","NORAD_CAT_ID":64290,"ELEMENT_SET_NO":999,"REV_AT_EPOCH":262,"BSTAR":0,"MEAN_MOTION_DOT":-3.1e-7,"MEAN_MOTION_DDOT":0},{"OBJECT_NAME":"INTELSAT 33E DEB","OBJECT_ID":"2016-053Y","EPOCH":"2026-03-03T02:21:25.849440","MEAN_MOTION":1.08355555,"ECCENTRICITY":0.0627082,"INCLINATION":1.146,"RA_OF_ASC_NODE":38.1194,"ARG_OF_PERICENTER":339.8301,"MEAN_ANOMALY":18.7694,"EPHEMERIS_TYPE":0,"CLASSIFICATION_TYPE":"U","NORAD_CAT_ID":64394,"ELEMENT_SET_NO":999,"REV_AT_EPOCH":529,"BSTAR":0,"MEAN_MOTION_DOT":-1.38e-6,"MEAN_MOTION_DDOT":0},{"OBJECT_NAME":"INTELSAT 33E DEB","OBJECT_ID":"2016-053Z","EPOCH":"2026-03-02T22:16:11.773920","MEAN_MOTION":0.99833999,"ECCENTRICITY":0.0087455,"INCLINATION":2.131,"RA_OF_ASC_NODE":116.3875,"ARG_OF_PERICENTER":203.7517,"MEAN_ANOMALY":156.1941,"EPHEMERIS_TYPE":0,"CLASSIFICATION_TYPE":"U","NORAD_CAT_ID":64395,"ELEMENT_SET_NO":999,"REV_AT_EPOCH":486,"BSTAR":0,"MEAN_MOTION_DOT":-2.15e-6,"MEAN_MOTION_DDOT":0},{"OBJECT_NAME":"INTELSAT 33E DEB","OBJECT_ID":"2016-053AA","EPOCH":"2026-03-02T21:51:05.672448","MEAN_MOTION":0.98615107,"ECCENTRICITY":0.0110261,"INCLINATION":1.2982,"RA_OF_ASC_NODE":83.6361,"ARG_OF_PERICENTER":58.2603,"MEAN_ANOMALY":303.8183,"EPHEMERIS_TYPE":0,"CLASSIFICATION_TYPE":"U","NORAD_CAT_ID":64396,"ELEMENT_SET_NO":999,"REV_AT_EPOCH":493,"BSTAR":0,"MEAN_MOTION_DOT":-3.12e-6,"MEAN_MOTION_DDOT":0},{"OBJECT_NAME":"INTELSAT 33E DEB","OBJECT_ID":"2016-053AB","EPOCH":"2026-03-03T14:47:37.144032","MEAN_MOTION":0.99467443,"ECCENTRICITY":0.0047152,"INCLINATION":1.267,"RA_OF_ASC_NODE":81.295,"ARG_OF_PERICENTER":91.557,"MEAN_ANOMALY":270.0783,"EPHEMERIS_TYPE":0,"CLASSIFICATION_TYPE":"U","NORAD_CAT_ID":64397,"ELEMENT_SET_NO":999,"REV_AT_EPOCH":485,"BSTAR":0,"MEAN_MOTION_DOT":9.8e-7,"MEAN_MOTION_DDOT":0},{"OBJECT_NAME":"INTELSAT 33E DEB","OBJECT_ID":"2016-053AC","EPOCH":"2026-02-24T02:13:08.698656","MEAN_MOTION":1.00972481,"ECCENTRICITY":0.01983908,"INCLINATION":1.1692,"RA_OF_ASC_NODE":47.8448,"ARG_OF_PERICENTER":317.0627,"MEAN_ANOMALY":42.1986,"EPHEMERIS_TYPE":0,"CLASSIFICATION_TYPE":"U","NORAD_CAT_ID":64398,"ELEMENT_SET_NO":999,"REV_AT_EPOCH":487,"BSTAR":0,"MEAN_MOTION_DOT":2.1e-7,"MEAN_MOTION_DDOT":0},{"OBJECT_NAME":"INTELSAT 33E DEB","OBJECT_ID":"2016-053AD","EPOCH":"2026-02-25T20:18:20.472192","MEAN_MOTION":0.98863655,"ECCENTRICITY":0.05205843,"INCLINATION":1.3084,"RA_OF_ASC_NODE":58.8286,"ARG_OF_PERICENTER":324.974,"MEAN_ANOMALY":32.3647,"EPHEMERIS_TYPE":0,"CLASSIFICATION_TYPE":"U","NORAD_CAT_ID":64399,"ELEMENT_SET_NO":999,"REV_AT_EPOCH":472,"BSTAR":0,"MEAN_MOTION_DOT":-3.03e-6,"MEAN_MOTION_DDOT":0},{"OBJECT_NAME":"INTELSAT 33E DEB","OBJECT_ID":"2016-053AE","EPOCH":"2026-02-28T08:03:12.028032","MEAN_MOTION":1.03345253,"ECCENTRICITY":0.0480725,"INCLINATION":1.2056,"RA_OF_ASC_NODE":82.02,"ARG_OF_PERICENTER":305.7756,"MEAN_ANOMALY":50.5784,"EPHEMERIS_TYPE":0,"CLASSIFICATION_TYPE":"U","NORAD_CAT_ID":64400,"ELEMENT_SET_NO":999,"REV_AT_EPOCH":503,"BSTAR":0,"MEAN_MOTION_DOT":-3.6e-7,"MEAN_MOTION_DDOT":0},{"OBJECT_NAME":"INTELSAT 33E DEB","OBJECT_ID":"2016-053AF","EPOCH":"2026-02-19T17:44:03.387840","MEAN_MOTION":1.0581045,"ECCENTRICITY":0.07007585,"INCLINATION":1.1047,"RA_OF_ASC_NODE":72.8646,"ARG_OF_PERICENTER":295.665,"MEAN_ANOMALY":58.1706,"EPHEMERIS_TYPE":0,"CLASSIFICATION_TYPE":"U","NORAD_CAT_ID":64401,"ELEMENT_SET_NO":999,"REV_AT_EPOCH":506,"BSTAR":0,"MEAN_MOTION_DOT":-5.8e-7,"MEAN_MOTION_DDOT":0},{"OBJECT_NAME":"INTELSAT 33E DEB","OBJECT_ID":"2016-053AG","EPOCH":"2026-03-03T04:26:40.123104","MEAN_MOTION":0.98355069,"ECCENTRICITY":0.01209,"INCLINATION":1.2366,"RA_OF_ASC_NODE":75.1099,"ARG_OF_PERICENTER":102.4572,"MEAN_ANOMALY":260.0667,"EPHEMERIS_TYPE":0,"CLASSIFICATION_TYPE":"U","NORAD_CAT_ID":64402,"ELEMENT_SET_NO":999,"REV_AT_EPOCH":482,"BSTAR":0,"MEAN_MOTION_DOT":-7.0e-7,"MEAN_MOTION_DDOT":0},{"OBJECT_NAME":"INTELSAT 33E DEB","OBJECT_ID":"2016-053AH","EPOCH":"2026-03-03T07:48:03.772224","MEAN_MOTION":1.00711906,"ECCENTRICITY":0.0062621,"INCLINATION":1.1657,"RA_OF_ASC_NODE":63.5234,"ARG_OF_PERICENTER":335.5925,"MEAN_ANOMALY":25.3515,"EPHEMERIS_TYPE":0,"CLASSIFICATION_TYPE":"U","NORAD_CAT_ID":64403,"ELEMENT_SET_NO":999,"REV_AT_EPOCH":489,"BSTAR":0,"MEAN_MOTION_DOT":-1.57e-6,"MEAN_MOTION_DDOT":0},{"OBJECT_NAME":"INTELSAT 33E DEB","OBJECT_ID":"2016-053AJ","EPOCH":"2026-03-03T13:10:34.057056","MEAN_MOTION":0.99863722,"ECCENTRICITY":0.0106794,"INCLINATION":1.1769,"RA_OF_ASC_NODE":57.278,"ARG_OF_PERICENTER":26.0425,"MEAN_ANOMALY":335.7292,"EPHEMERIS_TYPE":0,"CLASSIFICATION_TYPE":"U","NORAD_CAT_ID":64404,"ELEMENT_SET_NO":999,"REV_AT_EPOCH":485,"BSTAR":0,"MEAN_MOTION_DOT":1.0e-7,"MEAN_MOTION_DDOT":0},{"OBJECT_NAME":"INTELSAT 33E DEB","OBJECT_ID":"2016-053AK","EPOCH":"2026-03-03T11:56:28.612032","MEAN_MOTION":0.99503767,"ECCENTRICITY":0.0063775,"INCLINATION":1.4544,"RA_OF_ASC_NODE":95.8285,"ARG_OF_PERICENTER":9.9374,"MEAN_ANOMALY":351.0027,"EPHEMERIS_TYPE":0,"CLASSIFICATION_TYPE":"U","NORAD_CAT_ID":64405,"ELEMENT_SET_NO":999,"REV_AT_EPOCH":485,"BSTAR":0,"MEAN_MOTION_DOT":-2.83e-6,"MEAN_MOTION_DDOT":0},{"OBJECT_NAME":"INTELSAT 33E DEB","OBJECT_ID":"2016-053AL","EPOCH":"2026-03-02T11:58:59.360160","MEAN_MOTION":0.98885276,"ECCENTRICITY":0.01275866,"INCLINATION":1.1994,"RA_OF_ASC_NODE":68.6079,"ARG_OF_PERICENTER":43.8501,"MEAN_ANOMALY":318.3222,"EPHEMERIS_TYPE":0,"CLASSIFICATION_TYPE":"U","NORAD_CAT_ID":64406,"ELEMENT_SET_NO":999,"REV_AT_EPOCH":478,"BSTAR":0,"MEAN_MOTION_DOT":-1.3e-6,"MEAN_MOTION_DDOT":0},{"OBJECT_NAME":"INTELSAT 33E DEB","OBJECT_ID":"2016-053AN","EPOCH":"2026-03-01T01:02:06.658368","MEAN_MOTION":1.031992,"ECCENTRICITY":0.16296238,"INCLINATION":2.1225,"RA_OF_ASC_NODE":99.3652,"ARG_OF_PERICENTER":272.6718,"MEAN_ANOMALY":69.208,"EPHEMERIS_TYPE":0,"CLASSIFICATION_TYPE":"U","NORAD_CAT_ID":64408,"ELEMENT_SET_NO":999,"REV_AT_EPOCH":496,"BSTAR":0,"MEAN_MOTION_DOT":-2.74e-6,"MEAN_MOTION_DDOT":0},{"OBJECT_NAME":"INTELSAT 33E DEB","OBJECT_ID":"2016-053AP","EPOCH":"2026-03-03T15:04:46.745184","MEAN_MOTION":0.99465133,"ECCENTRICITY":0.0052451,"INCLINATION":1.2517,"RA_OF_ASC_NODE":79.3755,"ARG_OF_PERICENTER":77.2745,"MEAN_ANOMALY":284.4318,"EPHEMERIS_TYPE":0,"CLASSIFICATION_TYPE":"U","NORAD_CAT_ID":64409,"ELEMENT_SET_NO":999,"REV_AT_EPOCH":481,"BSTAR":0,"MEAN_MOTION_DOT":1.06e-6,"MEAN_MOTION_DDOT":0},{"OBJECT_NAME":"INTELSAT 33E DEB","OBJECT_ID":"2016-053AQ","EPOCH":"2026-03-02T22:44:47.274432","MEAN_MOTION":0.99992787,"ECCENTRICITY":0.00644058,"INCLINATION":1.188,"RA_OF_ASC_NODE":69.2809,"ARG_OF_PERICENTER":349.9368,"MEAN_ANOMALY":11.1232,"EPHEMERIS_TYPE":0,"CLASSIFICATION_TYPE":"U","NORAD_CAT_ID":64410,"ELEMENT_SET_NO":999,"REV_AT_EPOCH":482,"BSTAR":0,"MEAN_MOTION_DOT":-2.51e-6,"MEAN_MOTION_DDOT":0}]
